{
  "type": "FeatureCollection",
  "name": "namchi_sample",
  "crs": { "type": "name", "properties": { "name": "urn:ogc:def:crs:OGC:1.3:CRS84" } },
  "features": [
    {
      "type": "Feature",
      "properties": {
        "name": "Namchi Bazaar",
        "population": 1860,
        "elevation": 1420,
        "slope_pct": 18,
        "rain_mm": 2180
      },
      "geometry": { "type": "Point", "coordinates": [88.3058, 27.1649] }
    },
    {
      "type": "Feature",
      "properties": {
        "name": "Jorethang Lower",
        "population": 720,
        "elevation": 305,
        "slope_pct": 12,
        "rain_mm": 2510
      },
      "geometry": { "type": "Point", "coordinates": [88.3153, 27.1112] }
    },
    {
      "type": "Feature",
      "properties": {
        "name": "Boomtar Ridge",
        "population": 410,
        "elevation": 1710,
        "slope_pct": 31,
        "rain_mm": 1950
      },
      "geometry": { "type": "Point", "coordinates": [88.2815, 27.1934] }
    },
    {
      "type": "Feature",
      "properties": {
        "name": "Melli Valley",
        "population": 260,
        "elevation": 260,
        "slope_pct": 9,
        "rain_mm": 2630
      },
      "geometry": { "type": "Point", "coordinates": [88.2756, 27.0751] }
    }
  ]
}